OBJECT_NAME,OBJECT_ID,EPOCH,MEAN_MOTION,ECCENTRICITY,INCLINATION,RA_OF_ASC_NODE,ARG_OF_PERICENTER,MEAN_ANOMALY,EPHEMERIS_TYPE,CLASSIFICATION_TYPE,NORAD_CAT_ID,ELEMENT_SET_NO,REV_AT_EPOCH,BSTAR,MEAN_MOTION_DOT,MEAN_MOTION_DDOT
STARLINK-37839,2026-131U,2026-07-04T00:30:17.488800,15.80970969,.00017138,97.2833,206.2893,128.5403,231.6019,0,U,69496,999,356,.16211912E-2,.324513E-2,0
STARLINK-37798,2026-131V,2026-07-04T12:28:08.707008,15.81032158,.00005565,97.2826,206.8350,37.0900,323.0407,0,U,69497,999,364,.22761147E-2,.464483E-2,0
STARLINK-37853,2026-131W,2026-07-04T00:13:31.291680,15.80960310,.00012506,97.2844,206.3055,109.9839,250.1564,0,U,69498,999,356,.1580917E-2,.315984E-2,0
STARLINK-37849,2026-131X,2026-07-04T07:50:22.221312,15.81126251,.00015914,97.2835,206.6390,145.2967,214.8405,0,U,69499,999,361,.31337051E-2,.656799E-2,0
STARLINK-37835,2026-131Y,2026-07-04T07:52:31.693440,15.81171544,.00019824,97.2832,206.6367,120.3624,239.7840,0,U,69500,999,361,.24971482E-2,.515864E-2,0
STARLINK-37843,2026-131Z,2026-07-04T12:24:54.213696,15.80969863,.00010461,97.2832,206.8396,77.5643,282.5742,0,U,69501,999,364,.23454713E-2,.47801E-2,0
STARS-X,2026-132A,2026-07-04T10:38:29.987232,14.99084110,.00136428,97.6882,248.8900,204.6163,155.4410,0,U,69502,999,336,.14906923E-3,.1754E-4,0
2026-132B,2026-132B,2026-07-04T10:36:37.370016,14.99165545,.00135469,97.6911,248.9005,206.7069,153.3458,0,U,69503,999,336,.1234996E-3,.1446E-4,0
BRO-22,2026-132C,2026-07-04T10:23:14.857440,14.99786514,.00154564,97.6839,248.8924,220.2051,139.8030,0,U,69504,999,336,.11987815E-3,.1426E-4,0
HORN-L,2026-132D,2026-07-04T04:06:06.587712,15.08239687,.00235822,97.6898,248.7806,237.6046,122.2900,0,U,69505,999,333,.29467629E-3,.4526E-4,0
VERTECS,2026-132E,2026-07-04T14:46:49.953216,15.00964016,.00143866,97.6847,249.1231,242.3066,117.6699,0,U,69506,999,338,.37893581E-3,.4783E-4,0
HORN-R,2026-132F,2026-07-04T04:36:42.255936,15.04449432,.00168982,97.6788,248.7351,236.3621,123.5994,0,U,69507,999,332,.14950121E-3,.2033E-4,0
STARLINK-37536,2026-133A,2026-07-04T14:00:01.999872,15.49501302,.00013454,53.1600,235.5935,51.3770,148.7344,0,U,69508,999,477,-.64159942E-2,-.344354E-2,0
STARLINK-37341,2026-133B,2026-07-04T14:00:01.999872,15.49290999,.00017014,53.1598,235.6141,49.8832,139.9860,0,U,69509,999,477,-.10735458E-4,-.1045E-4,0
STARLINK-36536,2026-133C,2026-07-04T14:00:01.999872,15.64006264,.00012765,53.1594,235.0593,48.2571,54.7560,0,U,69510,999,471,-.27101411E-1,-.2299959E-1,0
STARLINK-37420,2026-133D,2026-07-04T14:00:01.999872,15.69201932,.0001263,53.1592,234.9246,63.8193,104.6248,0,U,69511,999,466,-.23714421E-1,-.2464386E-1,0
STARLINK-37511,2026-133E,2026-07-04T14:00:01.999872,15.68865845,.00013361,53.1595,234.9360,60.4015,102.8001,0,U,69512,999,466,-.14595343E-1,-.152622E-1,0
STARLINK-37552,2026-133F,2026-07-04T14:00:01.999872,15.49316072,.00024322,53.1599,235.6057,36.9273,156.0016,0,U,69513,999,466,.64603541E-3,.35656E-3,0
STARLINK-37607,2026-133G,2026-07-04T14:00:01.999872,15.67420535,.00012528,53.1601,234.9024,70.2697,109.1668,0,U,69514,999,466,-.26125274E-1,-.2514083E-1,0
STARLINK-37232,2026-133H,2026-07-04T14:00:01.999872,15.51179478,.00013279,53.1595,235.3254,103.5284,226.6115,0,U,69515,999,466,-.44462847E-1,-.2317124E-1,0
STARLINK-37323,2026-133J,2026-07-04T14:00:01.999872,15.70188801,.00012034,53.1596,234.8027,55.5462,171.5194,0,U,69516,999,466,-.1390739E-1,-.1535812E-1,0
STARLINK-37357,2026-133K,2026-07-04T14:00:01.999872,15.49244924,.00004277,53.1598,235.5939,65.6380,131.3626,0,U,69517,999,466,.27279006E-2,.153946E-2,0
STARLINK-37408,2026-133L,2026-07-04T14:00:01.999872,15.61292753,.00013334,53.1597,234.9516,62.7715,91.1213,0,U,69518,999,466,-.32014686E-1,-.2423015E-1,0
STARLINK-37570,2026-133M,2026-07-04T14:00:01.999872,15.49277021,.00010402,53.1596,235.3496,85.7185,230.7552,0,U,69519,999,466,.24318844E-3,.13084E-3,0
STARLINK-37510,2026-133N,2026-07-04T14:00:01.999872,15.50152293,.00010614,53.1594,235.2995,99.2754,242.7111,0,U,69520,999,466,-.24481082E-1,-.1271121E-1,0
STARLINK-37586,2026-133P,2026-07-04T14:00:01.999872,15.69517991,.00008827,53.1592,234.6358,64.9522,242.2961,0,U,69521,999,466,-.23683907E-1,-.2489807E-1,0
STARLINK-37379,2026-133Q,2026-07-04T14:00:01.999872,15.54896133,.00014056,53.1593,235.0088,53.1708,70.9827,0,U,69522,999,471,-.41124761E-1,-.2437366E-1,0
STARLINK-37429,2026-133R,2026-07-04T14:00:01.999872,15.49320431,.00015475,53.1599,235.4102,67.3805,218.2612,0,U,69523,999,471,-.12114432E-2,-.67276E-3,0
STARLINK-37352,2026-133S,2026-07-04T14:00:01.999872,15.53965248,.0001229,53.1590,234.9864,48.8196,85.4502,0,U,69524,999,471,-.4153751E-1,-.2385919E-1,0
STARLINK-37490,2026-133T,2026-07-04T14:00:01.999872,15.63476897,.00008839,53.1596,234.6352,65.5017,240.5008,0,U,69525,999,471,-.30262032E-1,-.2486304E-1,0
