STARLINK-37839          
1 69496U 26131U   26185.02103575  .00324513  00000+0  16212-2 0  9993
2 69496  97.2833 206.2893 0001713 128.5403 231.6019 15.80970969  3563
STARLINK-37798          
1 69497U 26131V   26185.51954522  .00464483  00000+0  22761-2 0  9991
2 69497  97.2826 206.8350 0000556  37.0900 323.0407 15.81032158  3646
STARLINK-37853          
1 69498U 26131W   26185.00938995  .00315984  00000+0  15809-2 0  9998
2 69498  97.2844 206.3055 0001250 109.9839 250.1564 15.80960310  3560
STARLINK-37849          
1 69499U 26131X   26185.32664608  .00656799  00000+0  31337-2 0  9997
2 69499  97.2835 206.6390 0001591 145.2967 214.8405 15.81126251  3615
STARLINK-37835          
1 69500U 26131Y   26185.32814460  .00515864  00000+0  24971-2 0  9996
2 69500  97.2832 206.6367 0001982 120.3624 239.7840 15.81171544  3611
STARLINK-37843          
1 69501U 26131Z   26185.51729414  .00478010  00000+0  23455-2 0  9999
2 69501  97.2832 206.8396 0001046  77.5643 282.5742 15.80969863  3649
STARS-X                 
1 69502U 26132A   26185.44340263  .00001754  00000+0  14907-3 0  9994
2 69502  97.6882 248.8900 0013642 204.6163 155.4410 14.99084110  3362
2026-132B               
1 69503U 26132B   26185.44209919  .00001446  00000+0  12350-3 0  9995
2 69503  97.6911 248.9005 0013546 206.7069 153.3458 14.99165545  3365
BRO-22                  
1 69504U 26132C   26185.43281085  .00001426  00000+0  11988-3 0  9993
2 69504  97.6839 248.8924 0015456 220.2051 139.8030 14.99786514  3368
HORN-L                  
1 69505U 26132D   26185.17090958  .00004526  00000+0  29468-3 0  9998
2 69505  97.6898 248.7806 0023582 237.6046 122.2900 15.08239687  3331
VERTECS                 
1 69506U 26132E   26185.61585594  .00004783  00000+0  37894-3 0  9990
2 69506  97.6847 249.1231 0014386 242.3066 117.6699 15.00964016  3381
HORN-R                  
1 69507U 26132F   26185.19215574  .00002033  00000+0  14950-3 0  9996
2 69507  97.6788 248.7351 0016898 236.3621 123.5994 15.04449432  3326
STARLINK-37536          
1 69508U 26133A   26185.58335648 -.00344354  00000+0 -64160-2 0  9990
2 69508  53.1600 235.5935 0001345  51.3770 148.7344 15.49501302  4772
STARLINK-37341          
1 69509U 26133B   26185.58335648 -.00001045  00000+0 -10735-4 0  9999
2 69509  53.1598 235.6141 0001701  49.8832 139.9860 15.49290999  4778
STARLINK-36536          
1 69510U 26133C   26185.58335648 -.02299959  00000+0 -27101-1 0  9998
2 69510  53.1594 235.0593 0001276  48.2571  54.7560 15.64006264  4713
STARLINK-37420          
1 69511U 26133D   26185.58335648 -.02464386  00000+0 -23714-1 0  9993
2 69511  53.1592 234.9246 0001263  63.8193 104.6248 15.69201932  4660
STARLINK-37511          
1 69512U 26133E   26185.58335648 -.01526220  00000+0 -14595-1 0  9996
2 69512  53.1595 234.9360 0001336  60.4015 102.8001 15.68865845  4663
STARLINK-37552          
1 69513U 26133F   26185.58335648  .00035656  00000+0  64604-3 0  9990
2 69513  53.1599 235.6057 0002432  36.9273 156.0016 15.49316072  4660
STARLINK-37607          
1 69514U 26133G   26185.58335648 -.02514083  00000+0 -26125-1 0  9995
2 69514  53.1601 234.9024 0001252  70.2697 109.1668 15.67420535  4663
STARLINK-37232          
1 69515U 26133H   26185.58335648 -.02317124  00000+0 -44463-1 0  9998
2 69515  53.1595 235.3254 0001327 103.5284 226.6115 15.51179478  4663
STARLINK-37323          
1 69516U 26133J   26185.58335648 -.01535812  00000+0 -13907-1 0  9993
2 69516  53.1596 234.8027 0001203  55.5462 171.5194 15.70188801  4660
STARLINK-37357          
1 69517U 26133K   26185.58335648  .00153946  00000+0  27279-2 0  9993
2 69517  53.1598 235.5939 0000427  65.6380 131.3626 15.49244924  4660
STARLINK-37408          
1 69518U 26133L   26185.58335648 -.02423015  00000+0 -32015-1 0  9998
2 69518  53.1597 234.9516 0001333  62.7715  91.1213 15.61292753  4663
STARLINK-37570          
1 69519U 26133M   26185.58335648  .00013084  00000+0  24319-3 0  9996
2 69519  53.1596 235.3496 0001040  85.7185 230.7552 15.49277021  4660
STARLINK-37510          
1 69520U 26133N   26185.58335648 -.01271121  00000+0 -24481-1 0  9997
2 69520  53.1594 235.2995 0001061  99.2754 242.7111 15.50152293  4667
STARLINK-37586          
1 69521U 26133P   26185.58335648 -.02489807  00000+0 -23684-1 0  9995
2 69521  53.1592 234.6358 0000882  64.9522 242.2961 15.69517991  4662
STARLINK-37379          
1 69522U 26133Q   26185.58335648 -.02437366  00000+0 -41125-1 0  9999
2 69522  53.1593 235.0088 0001405  53.1708  70.9827 15.54896133  4712
STARLINK-37429          
1 69523U 26133R   26185.58335648 -.00067276  00000+0 -12114-2 0  9994
2 69523  53.1599 235.4102 0001547  67.3805 218.2612 15.49320431  4718
STARLINK-37352          
1 69524U 26133S   26185.58335648 -.02385919  00000+0 -41538-1 0  9995
2 69524  53.1590 234.9864 0001229  48.8196  85.4502 15.53965248  4711
STARLINK-37490          
1 69525U 26133T   26185.58335648 -.02486304  00000+0 -30262-1 0  9998
2 69525  53.1596 234.6352 0000883  65.5017 240.5008 15.63476897  4713
